norad_id,name,regime,epoch,line1,line2,inclination,eccentricity,mean_motion,raan,arg_pericenter,mean_anomaly
26566,COSMOS 2374 (GLONASS),NSO,08234.78687434,1 26566U 00063C   08234.78687434  .00000050  00000-0  10000-3 0  3025\,2 26566 064.5287 173.9499 0051589 216.3267 175.0793 02.13100404 61134,64.5287,0.0051589,2.13100404,173.9499,216.3267,175.0793
26566,COSMOS 2374 (GLONASS),NSO,08235.71300564,1 26566U 00063C   08235.71300564 +.00000044 +00000-0 +10000-3 0 03040\,2 26566 064.5287 173.9192 0051583 216.3218 165.5759 02.13100414061153,64.5287,0.0051583,2.13100414,173.9192,216.3218,165.5759
26566,COSMOS 2374 (GLONASS),NSO,08235.92189046,1 26566U 00063C   08235.92189046  .00000041  00000-0  10000-3 0  3039\,2 26566 064.5287 173.9125 0051582 216.3298 325.8162 02.13100419 61150,64.5287,0.0051582,2.13100419,173.9125,216.3298,325.8162
26566,COSMOS 2374 (GLONASS),NSO,08236.84355855,1 26566U 00063C   08236.84355855 +.00000029 +00000-0 +10000-3 0 03052\,2 26566 064.5286 173.8816 0051596 216.3328 312.8807 02.13100424061174,64.5286,0.0051596,2.13100424,173.8816,216.3328,312.8807
26566,COSMOS 2374 (GLONASS),NSO,08237.20812042,1 26566U 00063C   08237.20812042  .00000024  00000-0  10000-3 0  3043\,2 26566 064.5286 173.8694 0051598 216.3288 232.5621 02.13100423 61187,64.5286,0.0051598,2.13100423,173.8694,216.3288,232.5621
26566,COSMOS 2374 (GLONASS),NSO,08237.34713564,1 26566U 00063C   08237.34713564 +.00000022 +00000-0 +10000-3 0 03056\,2 26566 064.5286 173.8647 0051596 216.3312 339.2065 02.13100421061186,64.5286,0.0051596,2.13100421,173.8647,216.3312,339.2065
26566,COSMOS 2374 (GLONASS),NSO,08238.22081666,1 26566U 00063C   08238.22081666  .00000007  00000-0  10000-3 0  3058\,2 26566 064.5285 173.8356 0051612 216.3293 289.4617 02.13100414 61203,64.5285,0.0051612,2.13100414,173.8356,216.3293,289.4617
26566,COSMOS 2374 (GLONASS),NSO,08238.78339860,1 26566U 00063C   08238.78339860 -.00000001 +00000-0 +10000-3 0 03067\,2 26566 064.5284 173.8168 0051593 216.3252 001.0562 02.13100416061216,64.5284,0.0051593,2.13100416,173.8168,216.3252,1.0562
26566,COSMOS 2374 (GLONASS),NSO,08239.95245854,1 26566U 00063C   08239.95245854 -.00000016 +00000-0 +10000-3 0 03084\,2 26566 064.5283 173.7778 0051601 216.3183 177.9194 02.13100415061240,64.5283,0.0051601,2.13100415,173.7778,216.3183,177.9194
26566,COSMOS 2374 (GLONASS),NSO,08240.89534898,1 26566U 00063C   08240.89534898 -.00000022 +00000-0 +10000-3 0 03085\,2 26566 064.5282 173.7466 0051577 216.2962 181.2888 02.13100407061260,64.5282,0.0051577,2.13100407,173.7466,216.2962,181.2888
26566,COSMOS 2374 (GLONASS),NSO,08241.44719512,1 26566U 00063C   08241.44719512 -.00000023  00000-0  10000-3 0  3075\,2 26566 064.5282 173.7281 0051580 216.2958 244.6437 02.13100405 61277,64.5282,0.005158,2.13100405,173.7281,216.2958,244.6437
26566,COSMOS 2374 (GLONASS),NSO,08241.56591741,1 26566U 00063C   08241.56591741 -.00000023 +00000-0 +10000-3 0 03081\,2 26566 064.5282 173.7242 0051574 216.2879 335.7300 02.13100396061279,64.5282,0.0051574,2.13100396,173.7242,216.2879,335.73
26566,COSMOS 2374 (GLONASS),NSO,08242.46182326,1 26566U 00063C   08242.46182326 -.00000019  00000-0  10000-3 0  3081\,2 26566 064.5283 173.6941 0051579 216.2721 303.0486 02.13100383 61297,64.5283,0.0051579,2.13100383,173.6941,216.2721,303.0486
26566,COSMOS 2374 (GLONASS),NSO,08242.86289169,1 26566U 00063C   08242.86289169 -.00000017 +00000-0 +10000-3 0 03097\,2 26566 064.5283 173.6807 0051579 216.2524 250.7516 02.13100374061303,64.5283,0.0051579,2.13100374,173.6807,216.2524,250.7516
26566,COSMOS 2374 (GLONASS),NSO,08243.85312407,1 26566U 00063C   08243.85312407 -.00000007  00000-0  10000-3 0  3098\,2 26566 064.5283 173.6477 0051593 216.2458 290.4248 02.13100366 61324,64.5283,0.0051593,2.13100366,173.6477,216.2458,290.4248
26566,COSMOS 2374 (GLONASS),NSO,08244.64783442,1 26566U 00063C   08244.64783442 +.00000001 +00000-0 +10000-3 0 03113\,2 26566 064.5281 173.6212 0051560 216.1979 180.1415 02.13100349061344,64.5281,0.005156,2.13100349,173.6212,216.1979,180.1415
26566,COSMOS 2374 (GLONASS),NSO,08245.25595057,1 26566U 00063C   08245.25595057  .00000008  00000-0  10000-3 0  3100\,2 26566 064.5281 173.6009 0051558 216.1909 286.6709 02.13100345 61353,64.5281,0.0051558,2.13100345,173.6009,216.1909,286.6709
26566,COSMOS 2374 (GLONASS),NSO,08246.22144356,1 26566U 00063C   08246.22144356 +.00000015 +00000-0 +10000-3 0 03119\,2 26566 064.5281 173.5687 0051536 216.1818 307.3675 02.13100343061372,64.5281,0.0051536,2.13100343,173.5687,216.1818,307.3675
26566,COSMOS 2374 (GLONASS),NSO,08247.60034487,1 26566U 00063C   08247.60034487  .00000018  00000-0  10000-3 0  3118\,2 26566 064.5281 173.5226 0051528 216.1548 285.2324 02.13100338 61405,64.5281,0.0051528,2.13100338,173.5226,216.1548,285.2324
26566,COSMOS 2374 (GLONASS),NSO,08248.60442763,1 26566U 00063C   08248.60442763  .00000015  00000-0  10000-3 0  3138\,2 26566 064.5281 173.4891 0051529 216.1488 335.5307 02.13100335 61425,64.5281,0.0051529,2.13100335,173.4891,216.1488,335.5307
26566,COSMOS 2374 (GLONASS),NSO,08248.87286139,1 26566U 00063C   08248.87286139 +.00000013 +00000-0 +10000-3 0 03149\,2 26566 064.5281 173.4801 0051532 216.1491 181.4621 02.13100335061432,64.5281,0.0051532,2.13100335,173.4801,216.1491,181.4621
26566,COSMOS 2374 (GLONASS),NSO,08249.81007024,1 26566U 00063C   08249.81007024  .00000006  00000-0  10000-3 0  3140\,2 26566 064.5281 173.4487 0051545 216.1420 180.4587 02.13100331 61456,64.5281,0.0051545,2.13100331,173.4487,216.142,180.4587
26566,COSMOS 2374 (GLONASS),NSO,08250.74187819,1 26566U 00063C   08250.74187819 -.00000001 +00000-0 +10000-3 0 03163\,2 26566 064.5280 173.4175 0051562 216.1119 175.3349 02.13100327061479,64.528,0.0051562,2.13100327,173.4175,216.1119,175.3349
26566,COSMOS 2374 (GLONASS),NSO,08251.21522913,1 26566U 00063C   08251.21522913 -.00000005  00000-0  10000-3 0  3157\,2 26566 064.5278 173.4018 0051558 216.0983 178.4848 02.13100330 61488,64.5278,0.0051558,2.1310033,173.4018,216.0983,178.4848
26566,COSMOS 2374 (GLONASS),NSO,08251.42611274,1 26566U 00063C   08251.42611274 -.00000007 +00000-0 +10000-3 0 03162\,2 26566 064.5278 173.3948 0051560 216.0878 340.2768 02.13100328061482,64.5278,0.005156,2.13100328,173.3948,216.0878,340.2768
26566,COSMOS 2374 (GLONASS),NSO,08252.29667706,1 26566U 00063C   08252.29667706 -.00000012  00000-0  10000-3 0  3165\,2 26566 064.5278 173.3657 0051546 216.0716 288.1553 02.13100329 61500,64.5278,0.0051546,2.13100329,173.3657,216.0716,288.1553
26566,COSMOS 2374 (GLONASS),NSO,08252.84419203,1 26566U 00063C   08252.84419203 -.00000015 +00000-0 +10000-3 0 03177\,2 26566 064.5277 173.3474 0051551 216.0604 348.1983 02.13100329061513,64.5277,0.0051551,2.13100329,173.3474,216.0604,348.1983
26566,COSMOS 2374 (GLONASS),NSO,08253.60949014,1 26566U 00063C   08253.60949014 -.00000016  00000-0  10000-3 0  3171\,2 26566 064.5276 173.3218 0051529 216.0547 215.3102 02.13100330 61531,64.5276,0.0051529,2.1310033,173.3218,216.0547,215.3102
26566,COSMOS 2374 (GLONASS),NSO,08254.17577351,1 26566U 00063C   08254.17577351 -.00000015 +00000-0 +10000-3 0 03185\,2 26566 064.5276 173.3029 0051527 216.0504 289.7446 02.13100328061546,64.5276,0.0051527,2.13100328,173.3029,216.0504,289.7446
26566,COSMOS 2374 (GLONASS),NSO,08255.12414303,1 26566U 00063C   08255.12414303 -.00000011  00000-0  10000-3 0  3184\,2 26566 064.5275 173.2710 0051533 216.0385 297.3079 02.13100327 61563,64.5275,0.0051533,2.13100327,173.271,216.0385,297.3079
26566,COSMOS 2374 (GLONASS),NSO,08255.90742093,1 26566U 00063C   08255.90742093 -.00000006 +00000-0 +10000-3 0 03195\,2 26566 064.5268 173.2455 0051458 215.9017 178.3470 02.13100449061587,64.5268,0.0051458,2.13100449,173.2455,215.9017,178.347
26566,COSMOS 2374 (GLONASS),NSO,08256.85032269,1 26566U 00063C   08256.85032269  .00000003  00000-0  10000-3 0  3193\,2 26566 064.5268 173.2136 0051472 215.8930 181.7125 02.13100429 61608,64.5268,0.0051472,2.13100429,173.2136,215.893,181.7125
26566,COSMOS 2374 (GLONASS),NSO,08257.86397422,1 26566U 00063C   08257.86397422  .00000013  00000-0  10000-3 0  3203\,2 26566 064.5274 173.1794 0051542 216.0225 239.2140 02.13100333 61624,64.5274,0.0051542,2.13100333,173.1794,216.0225,239.214
26566,COSMOS 2374 (GLONASS),NSO,08258.71937323,1 26566U 00063C   08258.71937323 +.00000022 +00000-0 +10000-3 0 03220\,2 26566 064.5274 173.1508 0051543 216.0001 175.4649 02.13100339061643,64.5274,0.0051543,2.13100339,173.1508,216.0001,175.4649
26566,COSMOS 2374 (GLONASS),NSO,08258.89084641,1 26566U 00063C   08258.89084641  .00000024  00000-0  10000-3 0  3216\,2 26566 064.5274 173.1451 0051542 215.9977 307.0148 02.13100342 61640,64.5274,0.0051542,2.13100342,173.1451,215.9977,307.0148
26566,COSMOS 2374 (GLONASS),NSO,08259.82960028,1 26566U 00063C   08259.82960028 +.00000032 +00000-0 +10000-3 0 03233\,2 26566 064.5274 173.1137 0051538 215.9836 307.2043 02.13100356061663,64.5274,0.0051538,2.13100356,173.1137,215.9836,307.2043
26566,COSMOS 2374 (GLONASS),NSO,08260.26406221,1 26566U 00063C   08260.26406221  .00000035  00000-0  10000-3 0  3225\,2 26566 064.5274 173.0992 0051520 215.9851 280.5050 02.13100366 61672,64.5274,0.005152,2.13100366,173.0992,215.9851,280.505
26566,COSMOS 2374 (GLONASS),NSO,08261.21094390,1 26566U 00063C   08261.21094390 +.00000039 +00000-0 +10000-3 0 03247\,2 26566 064.5273 173.0676 0051499 215.9750 286.9253 02.13100370061695,64.5273,0.0051499,2.1310037,173.0676,215.975,286.9253
26566,COSMOS 2374 (GLONASS),NSO,08262.15328550,1 26566U 00063C   08262.15328550  .00000038  00000-0  10000-3 0  3237\,2 26566 064.5272 173.0360 0051512 215.9595 289.8686 02.13100379 61711,64.5272,0.0051512,2.13100379,173.036,215.9595,289.8686
26566,COSMOS 2374 (GLONASS),NSO,08263.88492582,1 26566U 00063C   08263.88492582  .00000024  00000-0  10000-3 0  3241\,2 26566 064.5271 172.9783 0051506 215.9337 178.3406 02.13100390 61753,64.5271,0.0051506,2.1310039,172.9783,215.9337,178.3406
